NORAD_CAT_ID,OBJECT_NAME,OBJECT_TYPE,EPOCH,MEAN_MOTION,ECCENTRICITY,INCLINATION,RA_OF_ASC_NODE,ARG_OF_PERICENTER,MEAN_ANOMALY,BSTAR,MEAN_MOTION_DOT,MEAN_MOTION_DDOT,TLE_LINE0,TLE_LINE1,TLE_LINE2,SEMIMAJOR_AXIS,PERIOD,APOGEE,PERIGEE,DECAYED
55635.0,STARLINK-5495,PAYLOAD,2024-05-01 15:02:36,14.9833279,0.000281,69.9992,91.5879,269.8564,90.2273,4.0899e-06,-4.4e-07,0.0,0 STARLINK-5495,1 55635U 23021H   24122.62680928 -.00000044  00000-0  40899-5 0  9998,2 55635  69.9992  91.5879 0002810 269.8564  90.2273 14.98332790 67372,6950.184,96.107,574.002,570.096,0.0
55635.0,STARLINK-5495,PAYLOAD,2024-05-02 05:27:48,14.98332924,0.0002832,69.9991,90.0729,270.9266,89.1569,2.4012e-05,1.94e-06,0.0,0 STARLINK-5495,1 55635U 23021H   24123.22764751  .00000194  00000-0  24012-4 0  9995,2 55635  69.9991  90.0729 0002832 270.9266  89.1569 14.98332924 67166,6950.184,96.107,574.017,570.081,0.0
55635.0,STARLINK-5495,PAYLOAD,2024-05-02 07:03:56,14.98333485,0.0002825,69.9991,89.9046,270.8349,89.2486,3.0084e-05,2.66e-06,0.0,0 STARLINK-5495,1 55635U 23021H   24123.29440684  .00000266  00000-0  30084-4 0  9994,2 55635  69.9991  89.9046 0002825 270.8349  89.2486 14.98333485 67474,6950.182,96.107,574.011,570.084,0.0
55635.0,STARLINK-5495,PAYLOAD,2024-05-03 05:29:49,14.98337055,0.0002813,69.9992,87.5486,268.6626,91.421,6.8458e-05,7.24e-06,0.0,0 STARLINK-5495,1 55635U 23021H   24124.22904091  .00000724  00000-0  68458-4 0  9990,2 55635  69.9992  87.5486 0002813 268.6626  91.4210 14.98337055 67317,6950.171,96.107,573.991,570.081,0.0
55635.0,STARLINK-5495,PAYLOAD,2024-05-03 07:05:57,14.98337755,0.0002801,69.9993,87.3802,268.7465,91.3373,7.6015e-05,8.14e-06,0.0,0 STARLINK-5495,1 55635U 23021H   24124.29580000  .00000814  00000-0  76015-4 0  9995,2 55635  69.9993  87.3802 0002801 268.7465  91.3373 14.98337755 67627,6950.169,96.107,573.981,570.087,0.0
55635.0,STARLINK-5495,PAYLOAD,2024-05-03 21:31:10,14.98326281,0.0002503,69.9991,85.8647,273.6228,86.4644,-4.0826e-05,-5.8e-06,0.0,0 STARLINK-5495,1 55635U 23021H   24124.89665134 -.00000580  00000-0 -40826-4 0  9996,2 55635  69.9991  85.8647 0002503 273.6228  86.4644 14.98326281 67411,6950.204,96.107,573.809,570.33,0.0
55635.0,STARLINK-5495,PAYLOAD,2024-05-04 05:31:51,14.98316943,0.0002893,69.9992,85.0224,269.6162,90.4666,-0.00015729,-1.969e-05,0.0,0 STARLINK-5495,1 55635U 23021H   24125.23046137 -.00001969  00000-0 -15729-3 0  9996,2 55635  69.9992  85.0224 0002893 269.6162  90.4666 14.98316943 67467,6950.233,96.108,574.109,570.088,0.0
55635.0,STARLINK-5495,PAYLOAD,2024-05-04 15:08:39,14.98322495,0.000292,69.9994,84.0126,269.8788,90.2037,-8.2073e-05,-1.072e-05,0.0,0 STARLINK-5495,1 55635U 23021H   24125.63101848 -.00001072  00000-0 -82073-4 0  9993,2 55635  69.9994  84.0126 0002920 269.8788  90.2037 14.98322495 67522,6950.216,96.107,574.111,570.052,0.0
55635.0,STARLINK-5495,PAYLOAD,2024-05-05 03:57:44,14.98329585,0.000298,69.9993,82.666,270.7304,89.3514,-5.826e-05,-7.88e-06,0.0,0 STARLINK-5495,1 55635U 23021H   24126.16509506 -.00000788  00000-0 -58260-4 0  9999,2 55635  69.9993  82.6660 0002980 270.7304  89.3514 14.98329585 67604,6950.194,96.107,574.13,569.988,0.0
55635.0,STARLINK-5495,PAYLOAD,2024-05-05 07:10:00,14.9832994,0.0002988,69.9994,82.3294,271.0219,89.0598,-4.8851e-05,-6.76e-06,0.0,0 STARLINK-5495,1 55635U 23021H   24126.29861498 -.00000676  00000-0 -48851-4 0  9995,2 55635  69.9994  82.3294 0002988 271.0219  89.0598 14.98329940 67921,6950.193,96.107,574.135,569.981,0.0
55635.0,STARLINK-5495,PAYLOAD,2024-05-05 21:35:12,14.98326611,0.000312,69.9993,80.8147,270.8398,89.2403,0.00023089,2.663e-05,0.0,0 STARLINK-5495,1 55635U 23021H   24126.89944960  .00002663  00000-0  23089-3 0  9998,2 55635  69.9993  80.8147 0003120 270.8398  89.2403 14.98326611 68014,6950.203,96.107,574.237,569.9,0.0
55635.0,STARLINK-5495,PAYLOAD,2024-05-06 03:59:44,14.98334345,0.0003115,69.9992,80.1414,270.7986,89.2816,0.00027075,3.139e-05,0.0,0 STARLINK-5495,1 55635U 23021H   24127.16648414  .00003139  00000-0  27075-3 0  9992,2 55635  69.9992  80.1414 0003115 270.7986  89.2816 14.98334345 67750,6950.179,96.107,574.209,569.879,0.0
55635.0,STARLINK-5495,PAYLOAD,2024-05-06 13:36:32,14.98335788,0.0003069,69.9994,79.1313,270.6082,89.4725,0.00022415,2.583e-05,0.0,0 STARLINK-5495,1 55635U 23021H   24127.56704338  .00002583  00000-0  22415-3 0  9999,2 55635  69.9994  79.1313 0003069 270.6082  89.4725 14.98335788 68116,6950.175,96.107,574.173,569.907,0.0
55635.0,STARLINK-5495,PAYLOAD,2024-05-06 21:37:13,14.98336102,0.0002942,69.9998,78.29,270.5115,89.5707,9.0116e-05,9.83e-06,0.0,0 STARLINK-5495,1 55635U 23021H   24127.90084584  .00000983  00000-0  90116-4 0  9997,2 55635  69.9998  78.2900 0002942 270.5115  89.5707 14.98336102 68164,6950.174,96.107,574.084,569.994,0.0
55635.0,STARLINK-5495,PAYLOAD,2024-05-07 04:01:44,14.98341216,0.000282,69.9999,77.6175,267.0887,92.995,0.00015585,1.768e-05,0.0,0 STARLINK-5495,1 55635U 23021H   24128.16787954  .00001768  00000-0  15585-3 0  9995,2 55635  69.9999  77.6175 0002820 267.0887  92.9950 14.98341216 67905,6950.158,96.106,573.983,570.063,0.0
55635.0,STARLINK-5495,PAYLOAD,2024-05-07 13:38:32,14.98376548,0.0002264,70.0023,76.605,290.3712,69.7203,-0.0007974,-9.605e-05,0.0,0 STARLINK-5495,1 55635U 23021H   24128.56843741 -.00009605  00000-0 -79740-3 0  9999,2 55635  70.0023  76.6050 0002264 290.3712  69.7203 14.98376548 68264,6950.049,96.104,573.487,570.34,0.0
55635.0,STARLINK-5495,PAYLOAD,2024-05-07 21:39:14,14.98332336,0.0002407,70.0003,75.7664,271.3843,88.704,-0.00014429,-1.814e-05,0.0,0 STARLINK-5495,1 55635U 23021H   24128.90225110 -.00001814  00000-0 -14429-3 0  9998,2 55635  70.0003  75.7664 0002407 271.3843  88.7040 14.98332336 68319,6950.186,96.107,573.724,570.378,0.0
55635.0,STARLINK-5495,PAYLOAD,2024-05-08 04:03:46,14.98328411,0.000259,70.0005,75.0934,269.1943,90.892,-0.00017524,-2.183e-05,0.0,0 STARLINK-5495,1 55635U 23021H   24129.16929396 -.00002183  00000-0 -17524-3 0  9993,2 55635  70.0005  75.0934 0002590 269.1943  90.8920 14.98328411 68054,6950.198,96.107,573.863,570.263,0.0
55635.0,STARLINK-5495,PAYLOAD,2024-05-08 13:40:34,14.9833273,0.0002659,70.0003,74.083,271.004,89.0814,-9.774e-05,-1.259e-05,0.0,0 STARLINK-5495,1 55635U 23021H   24129.56984893 -.00001259  00000-0 -97740-4 0  9992,2 55635  70.0003  74.0830 0002659 271.0040  89.0814 14.98332730 68413,6950.184,96.107,573.898,570.201,0.0
55635.0,STARLINK-5495,PAYLOAD,2024-05-08 21:41:14,14.98337525,0.0002703,70.0003,73.2417,271.5724,88.5125,-1.8602e-05,-3.15e-06,0.0,0 STARLINK-5495,1 55635U 23021H   24129.90364258 -.00000315  00000-0 -18602-4 0  9999,2 55635  70.0003  73.2417 0002703 271.5724  88.5125 14.98337525 68167,6950.17,96.107,573.913,570.156,0.0
55635.0,STARLINK-5495,PAYLOAD,2024-05-09 05:41:54,14.98340903,0.0002694,70.0003,72.3989,270.1607,89.9244,3.6795e-05,3.46e-06,0.0,0 STARLINK-5495,1 55635U 23021H   24130.23743781  .00000346  00000-0  36795-4 0  9994,2 55635  70.0003  72.3989 0002694 270.1607  89.9244 14.98340903 68515,6950.159,96.106,573.897,570.152,0.0
55635.0,STARLINK-5495,PAYLOAD,2024-05-09 20:07:08,14.98316624,0.0002736,70.0004,70.8838,273.4666,86.618,0.00021809,2.509e-05,0.0,0 STARLINK-5495,1 55635U 23021H   24130.83828856  .00002509  00000-0  21809-3 0  9999,2 55635  70.0004  70.8838 0002736 273.4666  86.6180 14.98316624 68303,6950.234,96.108,574.001,570.198,0.0
55635.0,STARLINK-5495,PAYLOAD,2024-05-09 21:43:15,14.98322999,0.0002743,70.0011,70.7143,272.4202,87.6643,0.00015786,1.791e-05,0.0,0 STARLINK-5495,1 55635U 23021H   24130.90504580  .00001791  00000-0  15786-3 0  9991,2 55635  70.0011  70.7143 0002743 272.4202  87.6643 14.98322999 68613,6950.215,96.107,573.986,570.173,0.0
55635.0,STARLINK-5495,PAYLOAD,2024-05-10 04:07:48,14.9832803,0.0003179,70.0007,70.0433,274.3833,85.6963,0.00012188,1.361e-05,0.0,0 STARLINK-5495,1 55635U 23021H   24131.17208458  .00001361  00000-0  12188-3 0  9992,2 55635  70.0007  70.0433 0003179 274.3833  85.6963 14.98328030 68354,6950.199,96.107,574.273,569.855,0.0
55635.0,STARLINK-5495,PAYLOAD,2024-05-10 13:44:36,14.98330534,0.0002838,70.0004,69.0311,271.3508,88.7326,7.5592e-05,8.09e-06,0.0,0 STARLINK-5495,1 55635U 23021H   24131.57264473  .00000809  00000-0  75592-4 0  9990,2 55635  70.0004  69.0311 0002838 271.3508  88.7326 14.98330534 68710,6950.191,96.107,574.029,570.084,0.0
55635.0,STARLINK-5495,PAYLOAD,2024-05-10 21:45:16,14.98332826,0.0002926,70.0005,68.1896,271.1812,88.9012,4.562e-05,4.51e-06,0.0,0 STARLINK-5495,1 55635U 23021H   24131.90644357  .00000451  00000-0  45620-4 0  9992,2 55635  70.0005  68.1896 0002926 271.1812  88.9012 14.98332826 68768,6950.184,96.107,574.083,570.016,0.0
55635.0,STARLINK-5495,PAYLOAD,2024-05-11 04:09:47,14.9835757,0.0002631,70.0011,67.5187,258.3563,101.7301,0.00023224,2.681e-05,0.0,0 STARLINK-5495,1 55635U 23021H   24132.17346152  .00002681  00000-0  23224-3 0  9996,2 55635  70.0011  67.5187 0002631 258.3563 101.7301 14.98357570 68504,6950.108,96.105,573.801,570.144,0.0
55635.0,STARLINK-5495,PAYLOAD,2024-05-11 05:45:54,14.98371199,0.0002529,70.0013,67.3508,269.6498,90.4371,0.00038274,4.482e-05,0.0,0 STARLINK-5495,1 55635U 23021H   24132.24020973  .00004482  00000-0  38274-3 0  9996,2 55635  70.0013  67.3508 0002529 269.6498  90.4371 14.98371199 68514,6950.065,96.104,573.688,570.173,0.0
55635.0,STARLINK-5495,PAYLOAD,2024-05-11 21:47:20,14.98280751,0.0003771,70.0008,65.6673,285.2099,74.8643,-0.00057339,-6.92e-05,0.0,0 STARLINK-5495,1 55635U 23021H   24132.90787793 -.00006920  00000-0 -57339-3 0  9993,2 55635  70.0008  65.6673 0003771 285.2099  74.8643 14.98280751 68615,6950.345,96.11,574.831,569.589,0.0
55635.0,STARLINK-5495,PAYLOAD,2024-05-12 12:12:34,14.98285101,0.0002706,70.0008,64.1528,265.4781,94.6069,-0.00060176,-7.257e-05,0.0,0 STARLINK-5495,1 55635U 23021H   24133.50873186 -.00007257  00000-0 -60176-3 0  9999,2 55635  70.0008  64.1528 0002706 265.4781  94.6069 14.98285101 68709,6950.332,96.11,574.078,570.316,0.0
